H1 CPF  1  DLR 2022 09 23 10  7662 technosat            
H2  1704205 6203    42829 2022 09 23 00 00 00 2022 09 30 00 00 00    60 1 1  0 0 0
H9
10 0 59845  14400.000000  0      -3819342.337      -5442259.298       2108028.605
10 0 59845  14460.000000  0      -3964104.537      -5490274.309       1675850.058
10 0 59845  14520.000000  0      -4092491.307      -5513979.357       1236564.370
10 0 59845  14580.000000  0      -4203754.931      -5513428.304        792035.972
10 0 59845  14640.000000  0      -4297221.586      -5488784.119        344150.527
10 0 59845  14700.000000  0      -4372295.118      -5440317.446       -105193.262
10 0 59845  14760.000000  0      -4428460.442      -5368404.659       -554091.913
10 0 59845  14820.000000  0      -4465286.534      -5273525.379      -1000645.441
10 0 59845  14880.000000  0      -4482429.004      -5156259.501      -1442965.584
10 0 59845  14940.000000  0      -4479632.239      -5017283.730      -1879183.929
10 0 59845  15000.000000  0      -4456731.130      -4857367.688      -2307459.906
10 0 59845  15060.000000  0      -4413652.326      -4677369.595      -2725988.599
10 0 59845  15120.000000  0      -4350415.064      -4478231.590      -3133008.332
10 0 59845  15180.000000  0      -4267131.546      -4260974.707      -3526808.031
10 0 59845  15240.000000  0      -4164006.883      -4026693.535      -3905734.286
10 0 59845  15300.000000  0      -4041338.611      -3776550.624      -4268198.134
10 0 59845  15360.000000  0      -3899515.801      -3511770.620      -4612681.531
10 0 59845  15420.000000  0      -3739017.715      -3233634.171      -4937743.478
10 0 59845  15480.000000  0      -3560412.068      -2943471.664      -5242025.743
10 0 59845  15540.000000  0      -3364352.893      -2642656.822      -5524258.214
10 0 59845  15600.000000  0      -3151578.045      -2332600.215      -5783263.845
10 0 59845  15660.000000  0      -2922906.361      -2014742.675      -6017963.251
10 0 59845  15720.000000  0      -2679234.428      -1690548.635      -6227378.885
10 0 59845  15780.000000  0      -2421532.988      -1361499.454      -6410638.766
10 0 59845  15840.000000  0      -2150843.041      -1029086.754      -6566979.757
10 0 59845  15900.000000  0      -1868271.646       -694805.795      -6695750.397
10 0 59845  15960.000000  0      -1574987.462       -360148.928      -6796413.281
10 0 59845  16020.000000  0      -1272216.079        -26599.165      -6868547.045
10 0 59845  16080.000000  0       -961235.076        304376.143      -6911848.014
10 0 59845  16140.000000  0       -643368.776        631331.563      -6926131.441
10 0 59845  16200.000000  0       -319982.793        952849.742      -6911332.238
10 0 59845  16260.000000  0          7521.589       1267547.317      -6867505.242
10 0 59845  16320.000000  0        337713.186       1574080.628      -6794825.224
10 0 59845  16380.000000  0        669137.004       1871151.404      -6693586.521
10 0 59845  16440.000000  0       1000320.559       2157512.207      -6564202.018
10 0 59845  16500.000000  0       1329780.214       2431971.565      -6407201.683
10 0 59845  16560.000000  0       1656027.625       2693398.951      -6223230.792
10 0 59845  16620.000000  0       1977576.378       2940729.512      -6013047.631
10 0 59845  16680.000000  0       2292948.671       3172968.423      -5777520.695
10 0 59845  16740.000000  0       2600681.997       3389194.948      -5517625.535
10 0 59845  16800.000000  0       2899335.883       3588566.262      -5234441.187
10 0 59845  16860.000000  0       3187498.666       3770320.978      -4929146.131
10 0 59845  16920.000000  0       3463794.260       3933782.269      -4603013.772
10 0 59845  16980.000000  0       3726888.830       4078360.637      -4257407.485
10 0 59845  17040.000000  0       3975497.378       4203556.297      -3893775.250
10 0 59845  17100.000000  0       4208390.235       4308961.146      -3513643.837
10 0 59845  17160.000000  0       4424399.339       4394260.305      -3118612.552
10 0 59845  17220.000000  0       4622424.260       4459233.193      -2710346.621
10 0 59845  17280.000000  0       4801437.968       4503754.160      -2290570.296
10 0 59845  17340.000000  0       4960492.428       4527792.721      -1861059.615
10 0 59845  17400.000000  0       5098723.831       4531413.259      -1423634.764
10 0 59845  17460.000000  0       5215357.366       4514774.249       -980152.208
10 0 59845  17520.000000  0       5309711.630       4478127.047       -532496.658
10 0 59845  17580.000000  0       5381202.591       4421814.205        -82572.834
10 0 59845  17640.000000  0       5429347.121       4346267.363        367702.857
10 0 59845  17700.000000  0       5453766.093       4252004.685        816410.799
10 0 59845  17760.000000  0       5454186.949       4139627.792       1261636.683
10 0 59845  17820.000000  0       5430445.768       4009818.311       1701480.007
10 0 59845  17880.000000  0       5382488.769       3863333.991       2134062.595
10 0 59845  17940.000000  0       5310373.170       3701004.454       2557536.985
10 0 59845  18000.000000  0       5214267.517       3523726.616       2970094.631
10 0 59845  18060.000000  0       5094451.462       3332459.789       3369973.946
10 0 59845  18120.000000  0       4951314.977       3128220.475       3755468.080
10 0 59845  18180.000000  0       4785357.000       2912076.894       4124932.450
10 0 59845  18240.000000  0       4597183.506       2685143.217       4476791.796
10 0 59845  18300.000000  0       4387505.299       2448573.861       4809546.916
10 0 59845  18360.000000  0       4157135.079       2203557.555       5121781.397
10 0 59845  18420.000000  0       3906983.866       1951311.216       5412167.611
10 0 59845  18480.000000  0       3638057.155       1693073.786       5679472.288
10 0 59845  18540.000000  0       3351450.587       1430099.992       5922561.665
10 0 59845  18600.000000  0       3048345.205       1163654.113       6140406.119
10 0 59845  18660.000000  0       2730002.340        895003.823       6332084.302
10 0 59845  18720.000000  0       2397758.180        625414.156       6496786.825
10 0 59845  18780.000000  0       2053018.008        356141.550       6633819.554
10 0 59845  18840.000000  0       1697250.098         88427.961       6742606.421
10 0 59845  18900.000000  0       1331979.305       -176504.887       6822691.743
10 0 59845  18960.000000  0        958780.335       -437461.158       6873741.997
10 0 59845  19020.000000  0        579270.842       -693276.349       6895546.960
10 0 59845  19080.000000  0        195104.354       -942822.450       6888020.479
10 0 59845  19140.000000  0       -192037.038      -1185012.941       6851200.701
10 0 59845  19200.000000  0       -580450.078      -1418807.559       6785249.792
10 0 59845  19260.000000  0       -968417.909      -1643216.770       6690453.132
10 0 59845  19320.000000  0      -1354217.664      -1857305.950       6567217.985
10 0 59845  19380.000000  0      -1736128.060      -2060199.227       6416071.743
10 0 59845  19440.000000  0      -2112437.047      -2251083.024       6237659.776
10 0 59845  19500.000000  0      -2481449.486      -2429209.348       6032742.855
10 0 59845  19560.000000  0      -2841494.912      -2593898.813       5802194.112
10 0 59845  19620.000000  0      -3190935.322      -2744543.312       5546995.382
10 0 59845  19680.000000  0      -3528172.755      -2880608.247       5268232.985
10 0 59845  19740.000000  0      -3851656.677      -3001634.433       4967093.142
10 0 59845  19800.000000  0      -4159891.229      -3107239.617       4644856.960
10 0 59845  19860.000000  0      -4451442.266      -3197119.594       4302895.002
10 0 59845  19920.000000  0      -4724944.147      -3271048.935       3942661.477
10 0 59845  19980.000000  0      -4979106.237      -3328881.343       3565688.069
10 0 59845  20040.000000  0      -5212719.133      -3370549.617       3173577.446
10 0 59845  20100.000000  0      -5424660.582      -3396065.255       2767996.424
10 0 59845  20160.000000  0      -5613901.033      -3405517.674       2350668.771
10 0 59845  20220.000000  0      -5779508.717      -3399073.015       1923367.715
10 0 59845  20280.000000  0      -5920654.289      -3376972.563       1487908.241
10 0 59845  20340.000000  0      -6036614.985      -3339530.754       1046139.187
10 0 59845  20400.000000  0      -6126778.270      -3287132.822        599935.233
10 0 59845  20460.000000  0      -6190644.989      -3220232.157        151188.781
10 0 59845  20520.000000  0      -6227832.009      -3139347.315       -298198.280
10 0 59845  20580.000000  0      -6238074.277      -3045058.705       -746322.876
10 0 59845  20640.000000  0      -6221226.266      -2938004.956      -1191289.029
10 0 59845  20700.000000  0      -6177262.807      -2818879.005      -1631216.048
10 0 59845  20760.000000  0      -6106279.348      -2688423.980      -2064246.548
10 0 59845  20820.000000  0      -6008491.695      -2547428.880      -2488554.329
10 0 59845  20880.000000  0      -5884235.202      -2396724.069      -2902352.108
10 0 59845  20940.000000  0      -5733963.376      -2237176.620      -3303899.029
10 0 59845  21000.000000  0      -5558245.934      -2069685.513      -3691507.914
10 0 59845  21060.000000  0      -5357766.352      -1895176.750      -4063552.199
10 0 59845  21120.000000  0      -5133318.935      -1714598.411      -4418472.585
10 0 59845  21180.000000  0      -4885805.398      -1528915.665      -4754783.371
10 0 59845  21240.000000  0      -4616230.970      -1339105.750      -5071078.454
10 0 59845  21300.000000  0      -4325700.029      -1146152.957      -5366036.906
10 0 59845  21360.000000  0      -4015411.348       -951043.672      -5638428.137
10 0 59845  21420.000000  0      -3686652.985       -754761.491      -5887116.673
10 0 59845  21480.000000  0      -3340796.809       -558282.403      -6111066.529
10 0 59845  21540.000000  0      -2979292.709       -362570.092      -6309345.133
99
